[{"OBJECT_NAME":"STARLINK-5517","OBJECT_ID":"2023-094AH","EPOCH":"2026-03-09T22:00:01.999584","MEAN_MOTION":15.06174894,"ECCENTRICITY":0.00017485,"INCLINATION":43.0006,"RA_OF_ASC_NODE":16.2331,"ARG_OF_PERICENTER":245.5807,"MEAN_ANOMALY":47.0614,"EPHEMERIS_TYPE":0,"CLASSIFICATION_TYPE":"U","NORAD_CAT_ID":57249,"ELEMENT_SET_NO":999,"REV_AT_EPOCH":567,"BSTAR":0.002187207,"MEAN_MOTION_DOT":0.00032509,"MEAN_MOTION_DDOT":0},{"OBJECT_NAME":"FREGAT DEB","OBJECT_ID":"2011-037NM","EPOCH":"2026-03-09T21:01:07.795488","MEAN_MOTION":13.39665912,"ECCENTRICITY":0.09103246,"INCLINATION":51.3884,"RA_OF_ASC_NODE":232.6021,"ARG_OF_PERICENTER":190.9383,"MEAN_ANOMALY":167.0453,"EPHEMERIS_TYPE":0,"CLASSIFICATION_TYPE":"U","NORAD_CAT_ID":47330,"ELEMENT_SET_NO":999,"REV_AT_EPOCH":22515,"BSTAR":0.024434627,"MEAN_MOTION_DOT":0.0019134,"MEAN_MOTION_DDOT":0}]
